{
  "type": "FeatureCollection",
  "features": [
    {
      "type": "Feature",
      "properties": {
        "norad_id": 37846,
        "name": "GSAT0101 (GALILEO-PFM)",
        "group": "galileo",
        "lat": 27.95385544711402,
        "lon": 146.6109777810794,
        "alt_km": 23227.414823167826,
        "timestamp": "2025-12-15T11:38:37.416364+00:00",
        "meta_object_name": "GSAT0101 (GALILEO-PFM)",
        "meta_object_id": "2011-060A",
        "meta_epoch": "2025-12-12T21:37:17.093856",
        "meta_mean_motion": 1.70475751,
        "meta_eccentricity": 0.00030259,
        "meta_inclination": 57.0527,
        "meta_ra_of_asc_node": 346.8154,
        "meta_arg_of_pericenter": 315.3436,
        "meta_mean_anomaly": 44.6506,
        "meta_ephemeris_type": 0,
        "meta_classification_type": "U",
        "meta_norad_cat_id": 37846,
        "meta_element_set_no": 999,
        "meta_rev_at_epoch": 8794,
        "meta_bstar": 0,
        "meta_mean_motion_dot": -8.7e-07,
        "meta_mean_motion_ddot": 0,
        "tle_line1": "1 37846U 11060A   25346.90089229 -.00000087  00000+0  00000+0 0  9999",
        "tle_line2": "2 37846  57.0527 346.8154 0003025 315.3436  44.6506  1.70475751 87942"
      },
      "geometry": {
        "type": "Point",
        "coordinates": [
          146.6109777810794,
          27.95385544711402
        ]
      }
    },
    {
      "type": "Feature",
      "properties": {
        "norad_id": 37847,
        "name": "GSAT0102 (GALILEO-FM2)",
        "group": "galileo",
        "lat": -9.595045951119612,
        "lon": 173.0396314208276,
        "alt_km": 23230.38830509421,
        "timestamp": "2025-12-15T11:38:37.416386+00:00",
        "meta_object_name": "GSAT0102 (GALILEO-FM2)",
        "meta_object_id": "2011-060B",
        "meta_epoch": "2025-12-12T05:47:25.345248",
        "meta_mean_motion": 1.70475905,
        "meta_eccentricity": 0.00049802,
        "meta_inclination": 57.0536,
        "meta_ra_of_asc_node": 346.8337,
        "meta_arg_of_pericenter": 309.4177,
        "meta_mean_anomaly": 51.2149,
        "meta_ephemeris_type": 0,
        "meta_classification_type": "U",
        "meta_norad_cat_id": 37847,
        "meta_element_set_no": 999,
        "meta_rev_at_epoch": 8794,
        "meta_bstar": 0,
        "meta_mean_motion_dot": -8.7e-07,
        "meta_mean_motion_ddot": 0,
        "tle_line1": "1 37847U 11060B   25346.24126557 -.00000087  00000+0  00000+0 0  9993",
        "tle_line2": "2 37847  57.0536 346.8337 0004980 309.4177  51.2149  1.70475905 87941"
      },
      "geometry": {
        "type": "Point",
        "coordinates": [
          173.0396314208276,
          -9.595045951119612
        ]
      }
    },
    {
      "type": "Feature",
      "properties": {
        "norad_id": 38857,
        "name": "GSAT0103 (GALILEO-FM3)",
        "group": "galileo",
        "lat": 44.84644234158505,
        "lon": -116.14655019002961,
        "alt_km": 23223.579981427356,
        "timestamp": "2025-12-15T11:38:37.416400+00:00",
        "meta_object_name": "GSAT0103 (GALILEO-FM3)",
        "meta_object_id": "2012-055A",
        "meta_epoch": "2025-12-13T12:39:44.093088",
        "meta_mean_motion": 1.70473367,
        "meta_eccentricity": 0.00026827,
        "meta_inclination": 55.6929,
        "meta_ra_of_asc_node": 106.6448,
        "meta_arg_of_pericenter": 268.8486,
        "meta_mean_anomaly": 91.0883,
        "meta_ephemeris_type": 0,
        "meta_classification_type": "U",
        "meta_norad_cat_id": 38857,
        "meta_element_set_no": 999,
        "meta_rev_at_epoch": 8184,
        "meta_bstar": 0,
        "meta_mean_motion_dot": 1e-08,
        "meta_mean_motion_ddot": 0,
        "tle_line1": "1 38857U 12055A   25347.52759367  .00000001  00000+0  00000+0 0  9998",
        "tle_line2": "2 38857  55.6929 106.6448 0002682 268.8486  91.0883  1.70473367 81846"
      },
      "geometry": {
        "type": "Point",
        "coordinates": [
          -116.14655019002961,
          44.84644234158505
        ]
      }
    },
    {
      "type": "Feature",
      "properties": {
        "norad_id": 40128,
        "name": "GSAT0201 (GALILEO 5)",
        "group": "galileo",
        "lat": -45.65908745857758,
        "lon": -141.5110087688325,
        "alt_km": 23010.573273136488,
        "timestamp": "2025-12-15T11:38:37.416413+00:00",
        "meta_object_name": "GSAT0201 (GALILEO 5)",
        "meta_object_id": "2014-050A",
        "meta_epoch": "2025-12-14T00:08:14.916480",
        "meta_mean_motion": 1.85519648,
        "meta_eccentricity": 0.16480052,
        "meta_inclination": 49.0753,
        "meta_ra_of_asc_node": 281.012,
        "meta_arg_of_pericenter": 172.3262,
        "meta_mean_anomaly": 190.5827,
        "meta_ephemeris_type": 0,
        "meta_classification_type": "U",
        "meta_norad_cat_id": 40128,
        "meta_element_set_no": 999,
        "meta_rev_at_epoch": 7488,
        "meta_bstar": 0,
        "meta_mean_motion_dot": -9.9e-07,
        "meta_mean_motion_ddot": 0,
        "tle_line1": "1 40128U 14050A   25348.00572820 -.00000099  00000+0  00000+0 0  9998",
        "tle_line2": "2 40128  49.0753 281.0120 1648005 172.3262 190.5827  1.85519648 74882"
      },
      "geometry": {
        "type": "Point",
        "coordinates": [
          -141.5110087688325,
          -45.65908745857758
        ]
      }
    },
    {
      "type": "Feature",
      "properties": {
        "norad_id": 40129,
        "name": "GSAT0202 (GALILEO 6)",
        "group": "galileo",
        "lat": 48.25041018741802,
        "lon": -4.01082853992393,
        "alt_km": 21016.218586753115,
        "timestamp": "2025-12-15T11:38:37.416425+00:00",
        "meta_object_name": "GSAT0202 (GALILEO 6)",
        "meta_object_id": "2014-050B",
        "meta_epoch": "2025-12-14T06:17:14.023104",
        "meta_mean_motion": 1.85520414,
        "meta_eccentricity": 0.16487132,
        "meta_inclination": 49.0906,
        "meta_ra_of_asc_node": 280.0852,
        "meta_arg_of_pericenter": 173.0839,
        "meta_mean_anomaly": 189.5459,
        "meta_ephemeris_type": 0,
        "meta_classification_type": "U",
        "meta_norad_cat_id": 40129,
        "meta_element_set_no": 999,
        "meta_rev_at_epoch": 7705,
        "meta_bstar": 0,
        "meta_mean_motion_dot": -9.7e-07,
        "meta_mean_motion_ddot": 0,
        "tle_line1": "1 40129U 14050B   25348.26196786 -.00000097  00000+0  00000+0 0  9998",
        "tle_line2": "2 40129  49.0906 280.0852 1648713 173.0839 189.5459  1.85520414 77052"
      },
      "geometry": {
        "type": "Point",
        "coordinates": [
          -4.01082853992393,
          48.25041018741802
        ]
      }
    },
    {
      "type": "Feature",
      "properties": {
        "norad_id": 40544,
        "name": "GSAT0203 (GALILEO 7)",
        "group": "galileo",
        "lat": -54.90646772547112,
        "lon": -81.89537501440749,
        "alt_km": 23208.89668564444,
        "timestamp": "2025-12-15T11:38:37.416437+00:00",
        "meta_object_name": "GSAT0203 (GALILEO 7)",
        "meta_object_id": "2015-017A",
        "meta_epoch": "2025-12-14T10:31:47.473824",
        "meta_mean_motion": 1.70475994,
        "meta_eccentricity": 0.00064885,
        "meta_inclination": 56.8458,
        "meta_ra_of_asc_node": 346.6335,
        "meta_arg_of_pericenter": 272.6107,
        "meta_mean_anomaly": 87.3336,
        "meta_ephemeris_type": 0,
        "meta_classification_type": "U",
        "meta_norad_cat_id": 40544,
        "meta_element_set_no": 999,
        "meta_rev_at_epoch": 6605,
        "meta_bstar": 0,
        "meta_mean_motion_dot": -8.5e-07,
        "meta_mean_motion_ddot": 0,
        "tle_line1": "1 40544U 15017A   25348.43874391 -.00000085  00000+0  00000+0 0  9994",
        "tle_line2": "2 40544  56.8458 346.6335 0006488 272.6107  87.3336  1.70475994 66059"
      },
      "geometry": {
        "type": "Point",
        "coordinates": [
          -81.89537501440749,
          -54.90646772547112
        ]
      }
    },
    {
      "type": "Feature",
      "properties": {
        "norad_id": 40545,
        "name": "GSAT0204 (GALILEO 8)",
        "group": "galileo",
        "lat": 43.06588607725277,
        "lon": 128.9692529408245,
        "alt_km": 23230.757772475947,
        "timestamp": "2025-12-15T11:38:37.416449+00:00",
        "meta_object_name": "GSAT0204 (GALILEO 8)",
        "meta_object_id": "2015-017B",
        "meta_epoch": "2025-12-14T02:34:59.251872",
        "meta_mean_motion": 1.70475779,
        "meta_eccentricity": 0.00061918,
        "meta_inclination": 56.8531,
        "meta_ra_of_asc_node": 346.6603,
        "meta_arg_of_pericenter": 264.6234,
        "meta_mean_anomaly": 95.3246,
        "meta_ephemeris_type": 0,
        "meta_classification_type": "U",
        "meta_norad_cat_id": 40545,
        "meta_element_set_no": 999,
        "meta_rev_at_epoch": 2909,
        "meta_bstar": 0,
        "meta_mean_motion_dot": -8.6e-07,
        "meta_mean_motion_ddot": 0,
        "tle_line1": "1 40545U 15017B   25348.10763023 -.00000086  00000+0  00000+0 0  9999",
        "tle_line2": "2 40545  56.8531 346.6603 0006191 264.6234  95.3246  1.70475779 29096"
      },
      "geometry": {
        "type": "Point",
        "coordinates": [
          128.9692529408245,
          43.06588607725277
        ]
      }
    }
  ]
}